UNKNOWN                 
1 87304U          25342.23768940  .00003655  00000+0  54133-3 0  9994
2 87304  74.0190 329.7646 0019656 298.1021  61.8165 14.75400941645818
UNKNOWN                 
1 87320U          25342.57533717  .00001961  00000+0  12574-2 0  9991
2 87320  66.5938  94.2080 0415102  57.5266 306.5223 13.70040379593176
UNKNOWN                 
1 87334U          25342.29316800  .00030068  00000+0  17758-1 0  9995
2 87334  89.9942 271.7171 0067470 270.9099  88.4354 14.06463453386021
UNKNOWN                 
1 87335U          25342.23558283  .00026312  00000+0  15312-1 0  9994
2 87335  89.9770 268.0321 0076891 244.0805 115.2439 14.06954020386344
UNKNOWN                 
1 87405U          25342.19893854  .00003142  00000+0  22401-2 0  9997
2 87405  82.7504  63.7027 0056701 343.7628  16.1720 13.96329268610529
UNKNOWN                 
1 87426U          25341.75905656  .00009747  00000+0  37339-2 0  9998
2 87426  65.7841 348.0558 0070391 293.3297 246.2841 14.29555723621872
UNKNOWN                 
1 87448U          25342.05025510  .00001904  00000+0  15468-2 0  9994
2 87448 100.4512 187.9937 0063121 217.2185 142.4586 13.90581475608589
UNKNOWN                 
1 87456U          25340.63787409  .00006883  00000+0  10360-2 0  9994
2 87456  65.7818 107.1903 0510617   8.0641 352.8261 14.13392421610630
UNKNOWN                 
1 87517U          25342.02668627  .00003636  00000+0  10212-2 0  9996
2 87517  65.8238 244.3077 0674819 308.6919  63.5860 13.61226401592279
UNKNOWN                 
1 87541U          25341.55037037  .00000340  00000+0  74449-3 0  9997
2 87541  99.6998 195.7254 0059473 275.6633 112.5958 13.35589670581349
UNKNOWN                 
1 87553U          25340.54441142  .00006477  00000+0  19420-2 0  9998
2 87553  65.6711  10.8694 0701050 230.2419 123.4847 13.53429466590419
UNKNOWN                 
1 87557U          25341.55684146  .00006931  00000+0  15256-1 0  9994
2 87557 101.7248 196.3279 0070981  15.0409 345.2795 13.27694723564349
