CCSDS_OMM_VERS = 2.0
CREATION_DATE  = 
ORIGINATOR     = 

OBJECT_NAME    = UNKNOWN
OBJECT_ID      = 
CENTER_NAME    = EARTH
REF_FRAME      = TEME
TIME_SYSTEM    = UTC
MEAN_ELEMENT_THEORY = SGP/SGP4

EPOCH          = 2025-12-08T05:42:16.364160
MEAN_MOTION    = 14.75400941
ECCENTRICITY   = .0019656
INCLINATION    = 74.0190
RA_OF_ASC_NODE = 329.7646
ARG_OF_PERICENTER = 298.1021
MEAN_ANOMALY   = 61.8165

EPHEMERIS_TYPE = 0
CLASSIFICATION_TYPE = U
NORAD_CAT_ID   = 87304
ELEMENT_SET_NO = 999
REV_AT_EPOCH   = 64581
BSTAR          = .54133E-3
MEAN_MOTION_DOT = .3655E-4
MEAN_MOTION_DDOT = 0

CCSDS_OMM_VERS = 2.0
CREATION_DATE  = 
ORIGINATOR     = 

OBJECT_NAME    = UNKNOWN
OBJECT_ID      = 
CENTER_NAME    = EARTH
REF_FRAME      = TEME
TIME_SYSTEM    = UTC
MEAN_ELEMENT_THEORY = SGP/SGP4

EPOCH          = 2025-12-08T13:48:29.131488
MEAN_MOTION    = 13.70040379
ECCENTRICITY   = .0415102
INCLINATION    = 66.5938
RA_OF_ASC_NODE = 94.2080
ARG_OF_PERICENTER = 57.5266
MEAN_ANOMALY   = 306.5223

EPHEMERIS_TYPE = 0
CLASSIFICATION_TYPE = U
NORAD_CAT_ID   = 87320
ELEMENT_SET_NO = 999
REV_AT_EPOCH   = 59317
BSTAR          = .12574E-2
MEAN_MOTION_DOT = .1961E-4
MEAN_MOTION_DDOT = 0

CCSDS_OMM_VERS = 2.0
CREATION_DATE  = 
ORIGINATOR     = 

OBJECT_NAME    = UNKNOWN
OBJECT_ID      = 
CENTER_NAME    = EARTH
REF_FRAME      = TEME
TIME_SYSTEM    = UTC
MEAN_ELEMENT_THEORY = SGP/SGP4

EPOCH          = 2025-12-08T07:02:09.715200
MEAN_MOTION    = 14.06463453
ECCENTRICITY   = .006747
INCLINATION    = 89.9942
RA_OF_ASC_NODE = 271.7171
ARG_OF_PERICENTER = 270.9099
MEAN_ANOMALY   = 88.4354

EPHEMERIS_TYPE = 0
CLASSIFICATION_TYPE = U
NORAD_CAT_ID   = 87334
ELEMENT_SET_NO = 999
REV_AT_EPOCH   = 38602
BSTAR          = .17758E-1
MEAN_MOTION_DOT = .30068E-3
MEAN_MOTION_DDOT = 0

CCSDS_OMM_VERS = 2.0
CREATION_DATE  = 
ORIGINATOR     = 

OBJECT_NAME    = UNKNOWN
OBJECT_ID      = 
CENTER_NAME    = EARTH
REF_FRAME      = TEME
TIME_SYSTEM    = UTC
MEAN_ELEMENT_THEORY = SGP/SGP4

EPOCH          = 2025-12-08T05:39:14.356512
MEAN_MOTION    = 14.06954020
ECCENTRICITY   = .0076891
INCLINATION    = 89.9770
RA_OF_ASC_NODE = 268.0321
ARG_OF_PERICENTER = 244.0805
MEAN_ANOMALY   = 115.2439

EPHEMERIS_TYPE = 0
CLASSIFICATION_TYPE = U
NORAD_CAT_ID   = 87335
ELEMENT_SET_NO = 999
REV_AT_EPOCH   = 38634
BSTAR          = .15312E-1
MEAN_MOTION_DOT = .26312E-3
MEAN_MOTION_DDOT = 0

CCSDS_OMM_VERS = 2.0
CREATION_DATE  = 
ORIGINATOR     = 

OBJECT_NAME    = UNKNOWN
OBJECT_ID      = 
CENTER_NAME    = EARTH
REF_FRAME      = TEME
TIME_SYSTEM    = UTC
MEAN_ELEMENT_THEORY = SGP/SGP4

EPOCH          = 2025-12-08T04:46:28.289856
MEAN_MOTION    = 13.96329268
ECCENTRICITY   = .0056701
INCLINATION    = 82.7504
RA_OF_ASC_NODE = 63.7027
ARG_OF_PERICENTER = 343.7628
MEAN_ANOMALY   = 16.1720

EPHEMERIS_TYPE = 0
CLASSIFICATION_TYPE = U
NORAD_CAT_ID   = 87405
ELEMENT_SET_NO = 999
REV_AT_EPOCH   = 61052
BSTAR          = .22401E-2
MEAN_MOTION_DOT = .3142E-4
MEAN_MOTION_DDOT = 0

CCSDS_OMM_VERS = 2.0
CREATION_DATE  = 
ORIGINATOR     = 

OBJECT_NAME    = UNKNOWN
OBJECT_ID      = 
CENTER_NAME    = EARTH
REF_FRAME      = TEME
TIME_SYSTEM    = UTC
MEAN_ELEMENT_THEORY = SGP/SGP4

EPOCH          = 2025-12-07T18:13:02.486784
MEAN_MOTION    = 14.29555723
ECCENTRICITY   = .0070391
INCLINATION    = 65.7841
RA_OF_ASC_NODE = 348.0558
ARG_OF_PERICENTER = 293.3297
MEAN_ANOMALY   = 246.2841

EPHEMERIS_TYPE = 0
CLASSIFICATION_TYPE = U
NORAD_CAT_ID   = 87426
ELEMENT_SET_NO = 999
REV_AT_EPOCH   = 62187
BSTAR          = .37339E-2
MEAN_MOTION_DOT = .9747E-4
MEAN_MOTION_DDOT = 0

CCSDS_OMM_VERS = 2.0
CREATION_DATE  = 
ORIGINATOR     = 

OBJECT_NAME    = UNKNOWN
OBJECT_ID      = 
CENTER_NAME    = EARTH
REF_FRAME      = TEME
TIME_SYSTEM    = UTC
MEAN_ELEMENT_THEORY = SGP/SGP4

EPOCH          = 2025-12-08T01:12:22.040640
MEAN_MOTION    = 13.90581475
ECCENTRICITY   = .0063121
INCLINATION    = 100.4512
RA_OF_ASC_NODE = 187.9937
ARG_OF_PERICENTER = 217.2185
MEAN_ANOMALY   = 142.4586

EPHEMERIS_TYPE = 0
CLASSIFICATION_TYPE = U
NORAD_CAT_ID   = 87448
ELEMENT_SET_NO = 999
REV_AT_EPOCH   = 60858
BSTAR          = .15468E-2
MEAN_MOTION_DOT = .1904E-4
MEAN_MOTION_DDOT = 0

CCSDS_OMM_VERS = 2.0
CREATION_DATE  = 
ORIGINATOR     = 

OBJECT_NAME    = UNKNOWN
OBJECT_ID      = 
CENTER_NAME    = EARTH
REF_FRAME      = TEME
TIME_SYSTEM    = UTC
MEAN_ELEMENT_THEORY = SGP/SGP4

EPOCH          = 2025-12-06T15:18:32.321376
MEAN_MOTION    = 14.13392421
ECCENTRICITY   = .0510617
INCLINATION    = 65.7818
RA_OF_ASC_NODE = 107.1903
ARG_OF_PERICENTER = 8.0641
MEAN_ANOMALY   = 352.8261

EPHEMERIS_TYPE = 0
CLASSIFICATION_TYPE = U
NORAD_CAT_ID   = 87456
ELEMENT_SET_NO = 999
REV_AT_EPOCH   = 61063
BSTAR          = .1036E-2
MEAN_MOTION_DOT = .6883E-4
MEAN_MOTION_DDOT = 0

CCSDS_OMM_VERS = 2.0
CREATION_DATE  = 
ORIGINATOR     = 

OBJECT_NAME    = UNKNOWN
OBJECT_ID      = 
CENTER_NAME    = EARTH
REF_FRAME      = TEME
TIME_SYSTEM    = UTC
MEAN_ELEMENT_THEORY = SGP/SGP4

EPOCH          = 2025-12-08T00:38:25.693728
MEAN_MOTION    = 13.61226401
ECCENTRICITY   = .0674819
INCLINATION    = 65.8238
RA_OF_ASC_NODE = 244.3077
ARG_OF_PERICENTER = 308.6919
MEAN_ANOMALY   = 63.5860

EPHEMERIS_TYPE = 0
CLASSIFICATION_TYPE = U
NORAD_CAT_ID   = 87517
ELEMENT_SET_NO = 999
REV_AT_EPOCH   = 59227
BSTAR          = .10212E-2
MEAN_MOTION_DOT = .3636E-4
MEAN_MOTION_DDOT = 0

CCSDS_OMM_VERS = 2.0
CREATION_DATE  = 
ORIGINATOR     = 

OBJECT_NAME    = UNKNOWN
OBJECT_ID      = 
CENTER_NAME    = EARTH
REF_FRAME      = TEME
TIME_SYSTEM    = UTC
MEAN_ELEMENT_THEORY = SGP/SGP4

EPOCH          = 2025-12-07T13:12:31.999968
MEAN_MOTION    = 13.35589670
ECCENTRICITY   = .0059473
INCLINATION    = 99.6998
RA_OF_ASC_NODE = 195.7254
ARG_OF_PERICENTER = 275.6633
MEAN_ANOMALY   = 112.5958

EPHEMERIS_TYPE = 0
CLASSIFICATION_TYPE = U
NORAD_CAT_ID   = 87541
ELEMENT_SET_NO = 999
REV_AT_EPOCH   = 58134
BSTAR          = .74449E-3
MEAN_MOTION_DOT = .34E-5
MEAN_MOTION_DDOT = 0

CCSDS_OMM_VERS = 2.0
CREATION_DATE  = 
ORIGINATOR     = 

OBJECT_NAME    = UNKNOWN
OBJECT_ID      = 
CENTER_NAME    = EARTH
REF_FRAME      = TEME
TIME_SYSTEM    = UTC
MEAN_ELEMENT_THEORY = SGP/SGP4

EPOCH          = 2025-12-06T13:03:57.146688
MEAN_MOTION    = 13.53429466
ECCENTRICITY   = .070105
INCLINATION    = 65.6711
RA_OF_ASC_NODE = 10.8694
ARG_OF_PERICENTER = 230.2419
MEAN_ANOMALY   = 123.4847

EPHEMERIS_TYPE = 0
CLASSIFICATION_TYPE = U
NORAD_CAT_ID   = 87553
ELEMENT_SET_NO = 999
REV_AT_EPOCH   = 59041
BSTAR          = .1942E-2
MEAN_MOTION_DOT = .6477E-4
MEAN_MOTION_DDOT = 0

CCSDS_OMM_VERS = 2.0
CREATION_DATE  = 
ORIGINATOR     = 

OBJECT_NAME    = UNKNOWN
OBJECT_ID      = 
CENTER_NAME    = EARTH
REF_FRAME      = TEME
TIME_SYSTEM    = UTC
MEAN_ELEMENT_THEORY = SGP/SGP4

EPOCH          = 2025-12-07T13:21:51.102144
MEAN_MOTION    = 13.27694723
ECCENTRICITY   = .0070981
INCLINATION    = 101.7248
RA_OF_ASC_NODE = 196.3279
ARG_OF_PERICENTER = 15.0409
MEAN_ANOMALY   = 345.2795

EPHEMERIS_TYPE = 0
CLASSIFICATION_TYPE = U
NORAD_CAT_ID   = 87557
ELEMENT_SET_NO = 999
REV_AT_EPOCH   = 56434
BSTAR          = .15256E-1
MEAN_MOTION_DOT = .6931E-4
MEAN_MOTION_DDOT = 0

